{"type": "FeatureCollection", "features": [ {"type": "Feature", "properties": {"norad_id": 66913, "name": "2025-284A", "group": "last-30-days", "lat": -24.344326214261503, "lon": 125.31112856689815, "alt_km": 519.9512777270011, "timestamp": "2025-12-12T18:57:42.887677+00:00", "meta": {"OBJECT_NAME": "2025-284A", "OBJECT_ID": "2025-284A", "EPOCH": "2025-12-12T06:25:22.313568", "MEAN_MOTION": 15.18953778, "ECCENTRICITY": 0.0012049, "INCLINATION": 80.4045, "RA_OF_ASC_NODE": 130.3632, "ARG_OF_PERICENTER": 206.1305, "MEAN_ANOMALY": 153.9317, "EPHEMERIS_TYPE": 0, "CLASSIFICATION_TYPE": "U", "NORAD_CAT_ID": 66913, "ELEMENT_SET_NO": 999, "REV_AT_EPOCH": 105, "BSTAR": 0.00069984194, "MEAN_MOTION_DOT": 0.00014684, "MEAN_MOTION_DDOT": 0}, "tle": {"line1": "1 66913U 25284A   25346.26761937  .00014684  00000+0  69984-3 0  9998", "line2": "2 66913  80.4045 130.3632 0012049 206.1305 153.9317 15.18953778  1058"}}, "geometry": {"type": "Point", "coordinates": [125.31112856689815, -24.344326214261503]}}, {"type": "Feature", "properties": {"norad_id": 66914, "name": "2025-284B", "group": "last-30-days", "lat": -22.264386191517183, "lon": 125.73093033039612, "alt_km": 514.5655640926516, "timestamp": "2025-12-12T18:57:42.887689+00:00", "meta": {"OBJECT_NAME": "2025-284B", "OBJECT_ID": "2025-284B", "EPOCH": "2025-12-12T07:59:38.522400", "MEAN_MOTION": 15.18906899, "ECCENTRICITY": 0.00083313, "INCLINATION": 80.4054, "RA_OF_ASC_NODE": 130.2812, "ARG_OF_PERICENTER": 248.2959, "MEAN_ANOMALY": 111.7382, "EPHEMERIS_TYPE": 0, "CLASSIFICATION_TYPE": "U", "NORAD_CAT_ID": 66914, "ELEMENT_SET_NO": 999, "REV_AT_EPOCH": 106, "BSTAR": 0.00066626919, "MEAN_MOTION_DOT": 0.00013946, "MEAN_MOTION_DDOT": 0}, "tle": {"line1": "1 66914U 25284B   25346.33308475  .00013946  00000+0  66627-3 0  9992", "line2": "2 66914  80.4054 130.2812 0008331 248.2959 111.7382 15.18906899  1066"}}, "geometry": {"type": "Point", "coordinates": [125.73093033039612, -22.264386191517183]}}, {"type": "Feature", "properties": {"norad_id": 66915, "name": "HULIANWANG DIGUI-105", "group": "last-30-days", "lat": 49.51723329553974, "lon": -163.35566048108913, "alt_km": 876.6334474847054, "timestamp": "2025-12-12T18:57:42.887699+00:00", "meta": {"OBJECT_NAME": "HULIANWANG DIGUI-105", "OBJECT_ID": "2025-285A", "EPOCH": "2025-12-12T04:54:23.874336", "MEAN_MOTION": 14.04578447, "ECCENTRICITY": 0.0008078, "INCLINATION": 50.0047, "RA_OF_ASC_NODE": 119.4525, "ARG_OF_PERICENTER": 279.5241, "MEAN_ANOMALY": 80.475, "EPHEMERIS_TYPE": 0, "CLASSIFICATION_TYPE": "U", "NORAD_CAT_ID": 66915, "ELEMENT_SET_NO": 999, "REV_AT_EPOCH": 83, "BSTAR": 0.00019830708, "MEAN_MOTION_DOT": 1.67e-06, "MEAN_MOTION_DDOT": 0}, "tle": {"line1": "1 66915U 25285A   25346.20444299  .00000167  00000+0  19831-3 0  9991", "line2": "2 66915  50.0047 119.4525 0008078 279.5241  80.4750 14.04578447   834"}}, "geometry": {"type": "Point", "coordinates": [-163.35566048108913, 49.51723329553974]}}, {"type": "Feature", "properties": {"norad_id": 66916, "name": "HULIANWANG DIGUI-106", "group": "last-30-days", "lat": 49.946072172262184, "lon": -156.0318277893871, "alt_km": 872.766771027821, "timestamp": "2025-12-12T18:57:42.887709+00:00", "meta": {"OBJECT_NAME": "HULIANWANG DIGUI-106", "OBJECT_ID": "2025-285B", "EPOCH": "2025-12-12T08:18:22.724640", "MEAN_MOTION": 14.05514574, "ECCENTRICITY": 0.0006964, "INCLINATION": 50.0048, "RA_OF_ASC_NODE": 118.8706, "ARG_OF_PERICENTER": 276.0479, "MEAN_ANOMALY": 83.9633, "EPHEMERIS_TYPE": 0, "CLASSIFICATION_TYPE": "U", "NORAD_CAT_ID": 66916, "ELEMENT_SET_NO": 999, "REV_AT_EPOCH": 85, "BSTAR": 0.00019829877, "MEAN_MOTION_DOT": 1.72e-06, "MEAN_MOTION_DDOT": 0}, "tle": {"line1": "1 66916U 25285B   25346.34609635  .00000172  00000+0  19830-3 0  9999", "line2": "2 66916  50.0048 118.8706 0006964 276.0479  83.9633 14.05514574   859"}}, "geometry": {"type": "Point", "coordinates": [-156.0318277893871, 49.946072172262184]}}, {"type": "Feature", "properties": {"norad_id": 66917, "name": "HULIANWANG DIGUI-107", "group": "last-30-days", "lat": 49.98226114411034, "lon": -153.52647943299363, "alt_km": 872.8299605273787, "timestamp": "2025-12-12T18:57:42.887719+00:00", "meta": {"OBJECT_NAME": "HULIANWANG DIGUI-107", "OBJECT_ID": "2025-285C", "EPOCH": "2025-12-12T08:17:57.073344", "MEAN_MOTION": 14.05580261, "ECCENTRICITY": 0.00075564, "INCLINATION": 50.0014, "RA_OF_ASC_NODE": 118.8651, "ARG_OF_PERICENTER": 283.8554, "MEAN_ANOMALY": 76.151, "EPHEMERIS_TYPE": 0, "CLASSIFICATION_TYPE": "U", "NORAD_CAT_ID": 66917, "ELEMENT_SET_NO": 999, "REV_AT_EPOCH": 85, "BSTAR": 1.298898e-05, "MEAN_MOTION_DOT": -1.31e-06, "MEAN_MOTION_DDOT": 0}, "tle": {"line1": "1 66917U 25285C   25346.34579946 -.00000131  00000+0  12989-4 0  9996", "line2": "2 66917  50.0014 118.8651 0007556 283.8554  76.1510 14.05580261   854"}}, "geometry": {"type": "Point", "coordinates": [-153.52647943299363, 49.98226114411034]}}, {"type": "Feature", "properties": {"norad_id": 66918, "name": "HULIANWANG DIGUI-108", "group": "last-30-days", "lat": 49.92281836350144, "lon": -149.12714309938542, "alt_km": 871.7768187714428, "timestamp": "2025-12-12T18:57:42.887731+00:00", "meta": {"OBJECT_NAME": "HULIANWANG DIGUI-108", "OBJECT_ID": "2025-285D", "EPOCH": "2025-12-12T08:17:12.187680", "MEAN_MOTION": 14.05705181, "ECCENTRICITY": 0.00064667, "INCLINATION": 50.0035, "RA_OF_ASC_NODE": 118.8647, "ARG_OF_PERICENTER": 278.9319, "MEAN_ANOMALY": 81.0854, "EPHEMERIS_TYPE": 0, "CLASSIFICATION_TYPE": "U", "NORAD_CAT_ID": 66918, "ELEMENT_SET_NO": 999, "REV_AT_EPOCH": 85, "BSTAR": 0.00020143036, "MEAN_MOTION_DOT": 1.78e-06, "MEAN_MOTION_DDOT": 0}, "tle": {"line1": "1 66918U 25285D   25346.34527995  .00000178  00000+0  20143-3 0  9994", "line2": "2 66918  50.0035 118.8647 0006466 278.9319  81.0854 14.05705181   852"}}, "geometry": {"type": "Point", "coordinates": [-149.12714309938542, 49.92281836350144]}}, {"type": "Feature", "properties": {"norad_id": 66919, "name": "HULIANWANG DIGUI-109", "group": "last-30-days", "lat": 49.90521677124213, "lon": -148.55395275277658, "alt_km": 872.4911893994376, "timestamp": "2025-12-12T18:57:42.887742+00:00", "meta": {"OBJECT_NAME": "HULIANWANG DIGUI-109", "OBJECT_ID": "2025-285E", "EPOCH": "2025-12-12T08:17:06.352224", "MEAN_MOTION": 14.05716301, "ECCENTRICITY": 0.00078702, "INCLINATION": 50.0061, "RA_OF_ASC_NODE": 118.8676, "ARG_OF_PERICENTER": 290.4201, "MEAN_ANOMALY": 69.5859, "EPHEMERIS_TYPE": 0, "CLASSIFICATION_TYPE": "U", "NORAD_CAT_ID": 66919, "ELEMENT_SET_NO": 999, "REV_AT_EPOCH": 85, "BSTAR": 1.001386e-06, "MEAN_MOTION_DOT": -1.51e-06, "MEAN_MOTION_DDOT": 0}, "tle": {"line1": "1 66919U 25285E   25346.34521241 -.00000151  00000+0  10014-5 0  9993", "line2": "2 66919  50.0061 118.8676 0007870 290.4201  69.5859 14.05716301   855"}}, "geometry": {"type": "Point", "coordinates": [-148.55395275277658, 49.90521677124213]}}, {"type": "Feature", "properties": {"norad_id": 66920, "name": "HULIANWANG DIGUI-110", "group": "last-30-days", "lat": 49.63421791145972, "lon": -143.85833974373793, "alt_km": 870.7881009694011, "timestamp": "2025-12-12T18:57:42.887752+00:00", "meta": {"OBJECT_NAME": "HULIANWANG DIGUI-110", "OBJECT_ID": "2025-285F", "EPOCH": "2025-12-12T08:16:18.262848", "MEAN_MOTION": 14.05851064, "ECCENTRICITY": 0.00058249, "INCLINATION": 50.0092, "RA_OF_ASC_NODE": 118.8684, "ARG_OF_PERICENTER": 287.2479, "MEAN_ANOMALY": 72.7789, "EPHEMERIS_TYPE": 0, "CLASSIFICATION_TYPE": "U", "NORAD_CAT_ID": 66920, "ELEMENT_SET_NO": 999, "REV_AT_EPOCH": 85, "BSTAR": 0.00019650936, "MEAN_MOTION_DOT": 1.71e-06, "MEAN_MOTION_DDOT": 0}, "tle": {"line1": "1 66920U 25285F   25346.34465582  .00000171  00000+0  19651-3 0  9995", "line2": "2 66920  50.0092 118.8684 0005824 287.2479  72.7789 14.05851064   852"}}, "geometry": {"type": "Point", "coordinates": [-143.85833974373793, 49.63421791145972]}}, {"type": "Feature", "properties": {"norad_id": 66921, "name": "HULIANWANG DIGUI-111", "group": "last-30-days", "lat": 49.53275350970556, "lon": -142.6367458265391, "alt_km": 871.3630392168152, "timestamp": "2025-12-12T18:57:42.887762+00:00", "meta": {"OBJECT_NAME": "HULIANWANG DIGUI-111", "OBJECT_ID": "2025-285G", "EPOCH": "2025-12-12T08:16:05.608704", "MEAN_MOTION": 14.05884755, "ECCENTRICITY": 0.00069756, "INCLINATION": 50.0108, "RA_OF_ASC_NODE": 118.8697, "ARG_OF_PERICENTER": 293.7465, "MEAN_ANOMALY": 66.2709, "EPHEMERIS_TYPE": 0, "CLASSIFICATION_TYPE": "U", "NORAD_CAT_ID": 66921, "ELEMENT_SET_NO": 999, "REV_AT_EPOCH": 85, "BSTAR": 0.00020898987, "MEAN_MOTION_DOT": 1.92e-06, "MEAN_MOTION_DDOT": 0}, "tle": {"line1": "1 66921U 25285G   25346.34450936  .00000192  00000+0  20899-3 0  9992", "line2": "2 66921  50.0108 118.8697 0006975 293.7465  66.2709 14.05884755   853"}}, "geometry": {"type": "Point", "coordinates": [-142.6367458265391, 49.53275350970556]}}, {"type": "Feature", "properties": {"norad_id": 66922, "name": "HULIANWANG DIGUI-112", "group": "last-30-days", "lat": 49.096213993671206, "lon": -138.628528762798, "alt_km": 870.8964857535921, "timestamp": "2025-12-12T18:57:42.887772+00:00", "meta": {"OBJECT_NAME": "HULIANWANG DIGUI-112", "OBJECT_ID": "2025-285H", "EPOCH": "2025-12-12T08:15:23.696064", "MEAN_MOTION": 14.0599984, "ECCENTRICITY": 0.00069476, "INCLINATION": 50.0083, "RA_OF_ASC_NODE": 118.8631, "ARG_OF_PERICENTER": 300.0444, "MEAN_ANOMALY": 59.9772, "EPHEMERIS_TYPE": 0, "CLASSIFICATION_TYPE": "U", "NORAD_CAT_ID": 66922, "ELEMENT_SET_NO": 999, "REV_AT_EPOCH": 85, "BSTAR": 3.250463e-06, "MEAN_MOTION_DOT": -1.47e-06, "MEAN_MOTION_DDOT": 0}, "tle": {"line1": "1 66922U 25285H   25346.34402426 -.00000147  00000+0  32505-5 0  9994", "line2": "2 66922  50.0083 118.8631 0006947 300.0444  59.9772 14.05999840   853"}}, "geometry": {"type": "Point", "coordinates": [-138.628528762798, 49.096213993671206]}}]}